ONEWEB-0538             
1 56047U 23043B   23254.77794948  .00002028  00000+0  21249-3 0  9997
2 56047  86.8955  77.2181 0004708  87.9171 272.2595 14.89060569 26292
ONEWEB-0546             
1 56048U 23043C   23254.75213791  .00002296  00000+0  24127-3 0  9993
2 56048  86.8886  77.1393 0000471 141.2400 218.8861 14.89023691 26299
ONEWEB-0547             
1 56049U 23043D   23254.58334491 -.00022586  00000+0 -49728-1 0  9994
2 56049  87.9444  84.9882 0003919  91.0348 105.9673 13.28393391  5534
ONEWEB-0548             
1 56050U 23043E   23254.60793527  .00001839  00000+0  19298-3 0  9995
2 56050  86.8973  77.3225 0001340 105.3024 254.8351 14.88966077 26268
ONEWEB-0549             
1 56051U 23043F   23254.58334491 -.00022387  00000+0 -49297-1 0  9997
2 56051  87.9375  85.0027 0002531  76.6521 145.8399 13.28382308  5493
ONEWEB-0550             
1 56052U 23043G   23254.63573694  .00002039  00000+0  40120-2 0  9991
2 56052  87.9692  85.0018 0002214  69.0405 291.0973 13.35152167 25761
ONEWEB-0551             
1 56053U 23043H   23254.56893493  .00000158  00000+0  38494-3 0  9998
2 56053  87.8956 100.2595 0001963  83.3490 276.7863 13.15545293 23655
ONEWEB-0552             
1 56054U 23043J   23254.54288556  .00000092  00000+0  15619-3 0  9996
2 56054  87.9711  85.0280 0001045  83.9237 276.2023 13.35076350 24843
